$$SOE
2460147.500000000, A.D. 2023-Jul-22 00:00:00.0000, 3.586750601208537E+08, -1.235084184495634E+08, -3.886484918770069E+07,
2460154.500000000, A.D. 2023-Jul-29 00:00:00.0000, 3.618348482330659E+08, -1.126651439379259E+08, -3.770514003234277E+07,
2460161.500000000, A.D. 2023-Aug-05 00:00:00.0000, 3.646766579841589E+08, -1.017227746579354E+08, -3.651228932507441E+07,
2460168.500000000, A.D. 2023-Aug-12 00:00:00.0000, 3.671967608277052E+08, -9.069058186078797E+07, -3.528722214553565E+07,
2460175.500000000, A.D. 2023-Aug-19 00:00:00.0000, 3.693916982712341E+08, -7.957799145261580E+07, -3.403090058011869E+07,
2460182.500000000, A.D. 2023-Aug-26 00:00:00.0000, 3.712582895817463E+08, -6.839457634186138E+07, -3.274432326853187E+07,
2460189.500000000, A.D. 2023-Sep-02 00:00:00.0000, 3.727936393000855E+08, -5.715004844980749E+07, -3.142852489220564E+07,
2460196.500000000, A.D. 2023-Sep-09 00:00:00.0000, 3.739951445718626E+08, -4.585425042758626E+07, -3.008457560882563E+07,
2460203.500000000, A.D. 2023-Sep-16 00:00:00.0000, 3.748605024316410E+08, -3.451714713896306E+07, -2.871358045077045E+07,
2460210.500000000, A.D. 2023-Sep-23 00:00:00.0000, 3.753877174242494E+08, -2.314881662124945E+07, -2.731667870016830E+07,
2460217.500000000, A.D. 2023-Sep-30 00:00:00.0000, 3.755751091961200E+08, -1.175943933063402E+07, -2.589504311071263E+07,
2460224.500000000, A.D. 2023-Oct-07 00:00:00.0000, 3.754213176853889E+08, -3.592862165522017E+05, -2.444987880436316E+07,
2460231.500000000, A.D. 2023-Oct-14 00:00:00.0000, 3.749253069323671E+08, 1.104129105072208E+07, -2.298242220930425E+07,
2460238.500000000, A.D. 2023-Oct-21 00:00:00.0000, 3.740863707125210E+08, 2.243186928952785E+07, -2.149394020416469E+07,
2460245.500000000, A.D. 2023-Oct-28 00:00:00.0000, 3.729041385409758E+08, 3.380196470176214E+07, -1.998572915285417E+07,
2460252.500000000, A.D. 2023-Nov-04 00:00:00.0000, 3.713785807737525E+08, 4.514104466889495E+07, -1.845911377820930E+07,
2460259.500000000, A.D. 2023-Nov-11 00:00:00.0000, 3.695100129581556E+08, 5.643853983270764E+07, -1.691544593974564E+07,
2460266.500000000, A.D. 2023-Nov-18 00:00:00.0000, 3.672990996261287E+08, 6.768385637827633E+07, -1.535610334099655E+07,
2460273.500000000, A.D. 2023-Nov-25 00:00:00.0000, 3.647468575778489E+08, 7.886638852213110E+07, -1.378248817158210E+07,
2460280.500000000, A.D. 2023-Dec-02 00:00:00.0000, 3.618546586589978E+08, 8.997553117334656E+07, -1.219602568813203E+07,
2460287.500000000, A.D. 2023-Dec-09 00:00:00.0000, 3.586242320863488E+08, 1.010006926859787E+08, -1.059816274704680E+07,
2460294.500000000, A.D. 2023-Dec-16 00:00:00.0000, 3.550576665875945E+08, 1.119313076900375E+08, -8.990366315997332E+06,
2460301.500000000, A.D. 2023-Dec-23 00:00:00.0000, 3.511574126808009E+08, 1.227568506596197E+08, -7.374121942030922E+06,
2460308.500000000, A.D. 2023-Dec-30 00:00:00.0000, 3.469262837284302E+08, 1.334668512399913E+08, -5.750931969737589E+06,
2460315.500000000, A.D. 2024-Jan-06 00:00:00.0000, 3.423674539779963E+08, 1.440509089478340E+08, -4.122313542124234E+06,
2460322.500000000, A.D. 2024-Jan-13 00:00:00.0000, 3.374844567516158E+08, 1.544987054052091E+08, -2.489796826203145E+06,
2460329.500000000, A.D. 2024-Jan-20 00:00:00.0000, 3.322811839911950E+08, 1.648000171557425E+08, -8.549233271289766E+05,
2460336.500000000, A.D. 2024-Jan-27 00:00:00.0000, 3.267618851153253E+08, 1.749447296812435E+08, 7.807559448579401E+05,
2460343.500000000, A.D. 2024-Feb-03 00:00:00.0000, 3.209311647492230E+08, 1.849228516355597E+08, 2.415682412517689E+06,
2460350.500000000, A.D. 2024-Feb-10 00:00:00.0000, 3.147939795975332E+08, 1.947245289683643E+08, 4.048291921220914E+06,
2460357.500000000, A.D. 2024-Feb-17 00:00:00.0000, 3.083556345932861E+08, 2.043400589095210E+08, 5.677016763471484E+06,
2460364.500000000, A.D. 2024-Feb-24 00:00:00.0000, 3.016217783558691E+08, 2.137599037908645E+08, 7.300287731481269E+06,
2460371.500000000, A.D. 2024-Mar-02 00:00:00.0000, 2.945983979868806E+08, 2.229747046346353E+08, 8.916536187482387E+06,
2460378.500000000, A.D. 2024-Mar-09 00:00:00.0000, 2.872918133453277E+08, 2.319752944076740E+08, 1.052419612878203E+07,
2460385.500000000, A.D. 2024-Mar-16 00:00:00.0000, 2.797086712041945E+08, 2.407527111003964E+08, 1.212170622206213E+07,
2460392.500000000, A.D. 2024-Mar-23 00:00:00.0000, 2.718559391934966E+08, 2.492982116981883E+08, 1.370751190108056E+07,
2460399.500000000, A.D. 2024-Mar-30 00:00:00.0000, 2.637408972939636E+08, 2.576032869767827E+08, 1.528006772507061E+07,
2460406.500000000, A.D. 2024-Apr-06 00:00:00.0000, 2.553711271496225E+08, 2.656596737217027E+08, 1.683783969406141E+07,
2460413.500000000, A.D. 2024-Apr-13 00:00:00.0000, 2.467545027734298E+08, 2.734593651739705E+08, 1.837930725800633E+07,
2460420.500000000, A.D. 2024-Apr-20 00:00:00.0000, 2.378991817131658E+08, 2.809946223392492E+08, 1.990296531929602E+07,
2460427.500000000, A.D. 2024-Apr-27 00:00:00.0000, 2.288135951803994E+08, 2.882579855635667E+08, 2.140732631591479E+07,
2460434.500000000, A.D. 2024-May-04 00:00:00.0000, 2.195064372553476E+08, 2.952422856400264E+08, 2.289092231399423E+07,
2460441.500000000, A.D. 2024-May-11 00:00:00.0000, 2.099866534347878E+08, 3.019406543136413E+08, 2.435230707394803E+07,
2460448.500000000, A.D. 2024-May-18 00:00:00.0000, 2.002634286366836E+08, 3.083465341750866E+08, 2.579005807873246E+07,
2460455.500000000, A.D. 2024-May-25 00:00:00.0000, 1.903461747195328E+08, 3.144536879048720E+08, 2.720277851536781E+07,
2460462.500000000, A.D. 2024-Jun-01 00:00:00.0000, 1.802445176091600E+08, 3.202562067789895E+08, 2.858909919309328E+07,
2460469.500000000, A.D. 2024-Jun-08 00:00:00.0000, 1.699682843106349E+08, 3.257485183846184E+08, 2.994768036726835E+07,
2460476.500000000, A.D. 2024-Jun-15 00:00:00.0000, 1.595274902372307E+08, 3.309253940698985E+08, 3.127721347145091E+07,
2460483.500000000, A.D. 2024-Jun-22 00:00:00.0000, 1.489323258887931E+08, 3.357819572866451E+08, 3.257642294132744E+07,
2460490.500000000, A.D. 2024-Jun-29 00:00:00.0000, 1.381931407955310E+08, 3.403136909881522E+08, 3.384406817221501E+07,
2460497.500000000, A.D. 2024-Jul-06 00:00:00.0000, 1.273204274115237E+08, 3.445164416040158E+08, 3.507894516337015E+07,
2460504.500000000, A.D. 2024-Jul-13 00:00:00.0000, 1.163248069562541E+08, 3.483864224118768E+08, 3.627988789859979E+07,
2460511.500000000, A.D. 2024-Jul-20 00:00:00.0000, 1.052170152641883E+08, 3.519202174426196E+08, 3.744576973506914E+07,
2460518.500000000, A.D. 2024-Jul-27 00:00:00.0000, 9.400788802682263E+07, 3.551147849500642E+08, 3.857550477827084E+07,
2460525.500000000, A.D. 2024-Aug-03 00:00:00.0000, 8.270834574023628E+07, 3.579674600661869E+08, 3.966804918432747E+07,
2460532.500000000, A.D. 2024-Aug-10 00:00:00.0000, 7.132937856420575E+07, 3.604759566372665E+08, 4.072240237132965E+07,
2460539.500000000, A.D. 2024-Aug-17 00:00:00.0000, 5.988203118024284E+07, 3.626383682657696E+08, 4.173760813481414E+07,
2460546.500000000, A.D. 2024-Aug-24 00:00:00.0000, 4.837738771589558E+07, 3.644531685417674E+08, 4.271275566106419E+07,
2460553.500000000, A.D. 2024-Aug-31 00:00:00.0000, 3.682655688953907E+07, 3.659192104112152E+08, 4.364698042106059E+07,
2460560.500000000, A.D. 2024-Sep-07 00:00:00.0000, 2.524065777844524E+07, 3.670357248193875E+08, 4.453946492084114E+07,
2460567.500000000, A.D. 2024-Sep-14 00:00:00.0000, 1.363080633179971E+07, 3.678023196416692E+08, 4.538943938147871E+07,
2460574.500000000, A.D. 2024-Sep-21 00:00:00.0000, 2.008100638034169E+06, 3.682189793322245E+08, 4.619618256813367E+07,
2460581.500000000, A.D. 2024-Sep-28 00:00:00.0000, -9.616395505819090E+06, 3.682860620746795E+08, 4.695902254793563E+07,
2460588.500000000, A.D. 2024-Oct-05 00:00:00.0000, -2.123166702640800E+07, 3.680042944554635E+08, 4.767733704091927E+07,
2460595.500000000, A.D. 2024-Oct-12 00:00:00.0000, -3.282676033801863E+07, 3.673747666692849E+08, 4.835055364255540E+07,
2460602.500000000, A.D. 2024-Oct-19 00:00:00.0000, -4.439079615747686E+07, 3.663989280099404E+08, 4.897815005718781E+07,
2460609.500000000, A.D. 2024-Oct-26 00:00:00.0000, -5.591298237561861E+07, 3.650785818682969E+08, 4.955965428094250E+07,
2460616.500000000, A.D. 2024-Nov-02 00:00:00.0000, -6.738262670388435E+07, 3.634158801152877E+08, 5.009464470011364E+07,
2460623.500000000, A.D. 2024-Nov-09 00:00:00.0000, -7.878914897707364E+07, 3.614133169186668E+08, 5.058275009996365E+07,
2460630.500000000, A.D. 2024-Nov-16 00:00:00.0000, -9.012209306593692E+07, 3.590737220227839E+08, 5.102364958394961E+07,
2460637.500000000, A.D. 2024-Nov-23 00:00:00.0000, -1.013711383343854E+08, 3.564002534711044E+08, 5.141707239760062E+07,
2460644.500000000, A.D. 2024-Nov-30 00:00:00.0000, -1.125261104170390E+08, 3.533963897588224E+08, 5.176279763729861E+07,
2460651.500000000, A.D. 2024-Dec-07 00:00:00.0000, -1.235769908844668E+08, 3.500659218667290E+08, 5.206065384304170E+07,
2460658.500000000, A.D. 2024-Dec-14 00:00:00.0000, -1.345139264745614E+08, 3.464129464331754E+08, 5.231051864215964E+07,
2460665.500000000, A.D. 2024-Dec-21 00:00:00.0000, -1.453272401976507E+08, 3.424418588578902E+08, 5.251231855911016E+07,
2460672.500000000, A.D. 2024-Dec-28 00:00:00.0000, -1.560074423307974E+08, 3.381573433970416E+08, 5.266602857053675E+07,
2460679.500000000, A.D. 2025-Jan-04 00:00:00.0000, -1.665452387011359E+08, 3.335643626518408E+08, 5.277167136500816E+07,
2460686.500000000, A.D. 2025-Jan-11 00:00:00.0000, -1.769315380783837E+08, 3.286681481456666E+08, 5.282931661479664E+07,
2460693.500000000, A.D. 2025-Jan-18 00:00:00.0000, -1.871574595887884E+08, 3.234741911022274E+08, 5.283908027217168E+07,
2460700.500000000, A.D. 2025-Jan-25 00:00:00.0000, -1.972143399051298E+08, 3.179882329768422E+08, 5.280112383200528E+07,
2460707.500000000, A.D. 2025-Feb-01 00:00:00.0000, -2.070937400248697E+08, 3.122162557370223E+08, 5.271565354400358E+07,
2460714.500000000, A.D. 2025-Feb-08 00:00:00.0000, -2.167874515815866E+08, 3.061644719385954E+08, 5.258291957423338E+07,
$$EOE